{"type":"FeatureCollection","crs":{"type":"name","properties":{"name":"urn:ogc:def:crs:EPSG::4326"}},"generated":"2026-05-20T18:32:47Z","source":"GA","retention_days":730,"features":[{"type":"Feature","geometry":{"type":"Point","coordinates":[151.41563416,-25.0091362]},"properties":{"id":"ga2026jydgld","mag":3.5,"magType":"MLa","place":"Monto, QLD","time":"2026-05-20T18:06:10.819Z","depth":3.6483690738678,"inAU":true,"source":"GA","modified":"2026-05-20T18:14:51.494Z"}},{"type":"Feature","geometry":{"type":"Point","coordinates":[-122.48202515,-56.01759338]},"properties":{"id":"ga2026jycmti","mag":6.7,"magType":"Mww","place":"Southern East Pacific Rise","time":"2026-05-20T17:43:02.288Z","depth":10,"inAU":false,"source":"GA","modified":"2026-05-20T18:24:42.087Z"}},{"type":"Feature","geometry":{"type":"Point","coordinates":[117.26931763,-31.1866951]},"properties":{"id":"ga2026jxtozk","mag":2.5,"magType":"MLa","place":"Wyalkatchem, WA","time":"2026-05-20T13:15:45.767Z","depth":3.35173344612122,"inAU":true,"source":"GA","modified":"2026-05-20T13:24:53.226Z"}},{"type":"Feature","geometry":{"type":"Point","coordinates":[119.2698288,-8.17209625]},"properties":{"id":"ga2026jxoagd","mag":5,"magType":"Mw","place":"Flores Region, Indonesia","time":"2026-05-20T10:28:51.217Z","depth":17.703685760498,"inAU":false,"source":"GA","modified":"2026-05-20T11:18:08.915Z"}},{"type":"Feature","geometry":{"type":"Point","coordinates":[176.28807068,-17.22642136]},"properties":{"id":"ga2026jxmlzk","mag":5,"magType":"Mw","place":"Fiji Islands Region","time":"2026-05-20T09:40:32.399Z","depth":10,"inAU":false,"source":"GA","modified":"2026-05-20T10:01:37.837Z"}},{"type":"Feature","geometry":{"type":"Point","coordinates":[38.54504013,38.26641083]},"properties":{"id":"ga2026jxfbke","mag":5.8,"magType":"mb","place":"T\u00fcrkiye","time":"2026-05-20T06:00:16.386Z","depth":3.82338809967041,"inAU":false,"source":"GA","modified":"2026-05-20T17:04:55.343Z"}},{"type":"Feature","geometry":{"type":"Point","coordinates":[128.53308105,27.48987579]},"properties":{"id":"ga2026jwypib","mag":5.8,"magType":"Mw","place":"Ryukyu Islands, Japan","time":"2026-05-20T02:46:25.304Z","depth":36.5066566467285,"inAU":false,"source":"GA","modified":"2026-05-20T16:05:29.830Z"}},{"type":"Feature","geometry":{"type":"Point","coordinates":[-89.69168854,-40.59135818]},"properties":{"id":"ga2026jwypbz","mag":5.1,"magType":"mb","place":"West Chile Rise","time":"2026-05-20T02:46:23.053Z","depth":10,"inAU":false,"source":"GA","modified":"2026-05-20T16:24:37.754Z"}},{"type":"Feature","geometry":{"type":"Point","coordinates":[63.13305664,40.27641678]},"properties":{"id":"ga2026jwmkfh","mag":5,"magType":"Mw","place":"Northwestern Uzbekistan","time":"2026-05-19T20:40:44.323Z","depth":10,"inAU":false,"source":"GA","modified":"2026-05-19T21:14:10.912Z"}},{"type":"Feature","geometry":{"type":"Point","coordinates":[-75.5341568,-14.19400311]},"properties":{"id":"ga2026jwgyzy","mag":5.8,"magType":"Mw","place":"Near Coast of Peru","time":"2026-05-19T17:57:55.901Z","depth":62.9828720092773,"inAU":false,"source":"GA","modified":"2026-05-20T00:10:26.189Z"}},{"type":"Feature","geometry":{"type":"Point","coordinates":[122.31010437,-30.20233917]},"properties":{"id":"ga2026jwevyy","mag":2.3,"magType":"MLa","place":"NE of Kanowna, WA","time":"2026-05-19T16:54:22.627Z","depth":4.46353101730347,"inAU":true,"source":"GA","modified":"2026-05-20T03:43:36.083Z"}},{"type":"Feature","geometry":{"type":"Point","coordinates":[149.27267456,-33.90753555]},"properties":{"id":"ga2026jwdakj","mag":2.1,"magType":"MLa","place":"SW of Bathurst, NSW","time":"2026-05-19T15:59:31.618Z","depth":1.11213719844818,"inAU":true,"source":"GA","modified":"2026-05-20T02:10:09.749Z"}},{"type":"Feature","geometry":{"type":"Point","coordinates":[121.75060272,-32.22105026]},"properties":{"id":"ga2026jwcnzi","mag":2.2,"magType":"MLa","place":"Norseman, WA","time":"2026-05-19T15:45:11.864Z","depth":5,"inAU":true,"source":"GA","modified":"2026-05-20T00:35:21.315Z"}},{"type":"Feature","geometry":{"type":"Point","coordinates":[168.2880249,-17.90941238]},"properties":{"id":"ga2026jvzqyh","mag":5.2,"magType":"mb","place":"Vanuatu Islands","time":"2026-05-19T14:18:39.944Z","depth":55.4296264648438,"inAU":false,"source":"GA","modified":"2026-05-20T01:14:40.737Z"}},{"type":"Feature","geometry":{"type":"Point","coordinates":[-178.54808044,-17.91710472]},"properties":{"id":"ga2026jvdkxd","mag":5.2,"magType":"Mw","place":"Fiji Islands Region","time":"2026-05-19T03:17:02.597Z","depth":553.184936523438,"inAU":false,"source":"GA","modified":"2026-05-19T10:59:01.640Z"}},{"type":"Feature","geometry":{"type":"Point","coordinates":[161.2563324,-10.11019516]},"properties":{"id":"ga2026jvcvex","mag":5.1,"magType":"mb","place":"Solomon Islands","time":"2026-05-19T02:53:53.616Z","depth":88.7875823974609,"inAU":false,"source":"GA","modified":"2026-05-19T08:34:07.515Z"}},{"type":"Feature","geometry":{"type":"Point","coordinates":[168.10469055,-18.22010422]},"properties":{"id":"ga2026jvbzzl","mag":5.7,"magType":"Mw","place":"Vanuatu Islands","time":"2026-05-19T02:29:27.882Z","depth":45.7977676391602,"inAU":false,"source":"GA","modified":"2026-05-19T06:28:01.448Z"}},{"type":"Feature","geometry":{"type":"Point","coordinates":[139.08296204,-34.9682579]},"properties":{"id":"ga2026juqgkc","mag":2.3,"magType":"MLa","place":"NE of Nairne, SA","time":"2026-05-18T20:36:57.188Z","depth":10,"inAU":true,"source":"GA","modified":"2026-05-19T00:43:35.330Z"}},{"type":"Feature","geometry":{"type":"Point","coordinates":[-1.34077632,-54.05469894]},"properties":{"id":"ga2026jumrqg","mag":5.6,"magType":"Mw","place":"Bouvet Island Region","time":"2026-05-18T18:50:01.042Z","depth":10,"inAU":false,"source":"GA","modified":"2026-05-18T23:44:53.349Z"}},{"type":"Feature","geometry":{"type":"Point","coordinates":[121.74123383,-32.1985054]},"properties":{"id":"ga2026jugwta","mag":2.7,"magType":"MLa","place":"Norseman, WA","time":"2026-05-18T15:55:57.581Z","depth":5,"inAU":true,"source":"GA","modified":"2026-05-19T00:18:20.527Z"}},{"type":"Feature","geometry":{"type":"Point","coordinates":[109.24996948,24.4980278]},"properties":{"id":"ga2026jucmsp","mag":5.2,"magType":"Mw","place":"Southeastern China","time":"2026-05-18T13:44:26.536Z","depth":6.85695600509644,"inAU":false,"source":"GA","modified":"2026-05-19T00:30:00.120Z"}},{"type":"Feature","geometry":{"type":"Point","coordinates":[74.3664856,-28.59791183]},"properties":{"id":"ga2026jtqdzk","mag":5.3,"magType":"Mw","place":"Mid-Indian Ridge","time":"2026-05-18T07:34:31.646Z","depth":10,"inAU":false,"source":"GA","modified":"2026-05-18T13:53:14.854Z"}},{"type":"Feature","geometry":{"type":"Point","coordinates":[117.58522797,-31.29111099]},"properties":{"id":"ga2026jthlhr","mag":2.3,"magType":"MLa","place":"SE of Wyalkatchem, WA","time":"2026-05-18T03:13:06.407Z","depth":0.92961460351944,"inAU":true,"source":"GA","modified":"2026-05-19T00:52:46.032Z"}},{"type":"Feature","geometry":{"type":"Point","coordinates":[-82.35375214,-43.55012512]},"properties":{"id":"ga2026jtfjfz","mag":5.4,"magType":"Mw","place":"West Chile Rise","time":"2026-05-18T02:10:42.477Z","depth":10,"inAU":false,"source":"GA","modified":"2026-05-18T07:08:35.152Z"}},{"type":"Feature","geometry":{"type":"Point","coordinates":[96.36442566,16.47105408]},"properties":{"id":"ga2026jtfepz","mag":5.2,"magType":"Mw","place":"Near South Coast of Myanmar","time":"2026-05-18T02:05:26.333Z","depth":19.3495407104492,"inAU":false,"source":"GA","modified":"2026-05-18T10:23:52.248Z"}},{"type":"Feature","geometry":{"type":"Point","coordinates":[147.57873535,-6.47093821]},"properties":{"id":"ga2026jsyyom","mag":5.2,"magType":"mb","place":"Papua New Guinea Region","time":"2026-05-17T22:58:33.492Z","depth":65.2778778076172,"inAU":false,"source":"GA","modified":"2026-05-18T11:25:14.868Z"}},{"type":"Feature","geometry":{"type":"Point","coordinates":[151.39801025,-25.03165627]},"properties":{"id":"ga2026jswsdt","mag":3.5,"magType":"MLa","place":"SE of Monto, QLD","time":"2026-05-17T21:51:10.461Z","depth":10,"inAU":true,"source":"GA","modified":"2026-05-18T03:56:03.978Z"}},{"type":"Feature","geometry":{"type":"Point","coordinates":[109.20074463,24.45582199]},"properties":{"id":"ga2026jslsar","mag":5,"magType":"Mw","place":"Southeastern China","time":"2026-05-17T16:21:07.540Z","depth":15.0981578826904,"inAU":false,"source":"GA","modified":"2026-05-18T13:40:29.271Z"}},{"type":"Feature","geometry":{"type":"Point","coordinates":[146.97799683,-36.20341492]},"properties":{"id":"ga2026jsjjwo","mag":2.5,"magType":"MLa","place":"Wodonga, VIC","time":"2026-05-17T15:11:53.188Z","depth":5.87834167480469,"inAU":true,"source":"GA","modified":"2026-05-17T23:53:33.460Z"}},{"type":"Feature","geometry":{"type":"Point","coordinates":[157.27668762,50.88205719]},"properties":{"id":"ga2026jrvdge","mag":5.8,"magType":"mb","place":"Kuril Islands","time":"2026-05-17T08:04:17.774Z","depth":40.0170822143555,"inAU":false,"source":"GA","modified":"2026-05-18T00:57:58.086Z"}},{"type":"Feature","geometry":{"type":"Point","coordinates":[147.80000305,-2.84676671]},"properties":{"id":"ga2026jrusnv","mag":5.2,"magType":"Mw","place":"Admiralty Islands Region, Papua New Guinea","time":"2026-05-17T07:51:57.434Z","depth":10,"inAU":false,"source":"GA","modified":"2026-05-19T00:06:33.115Z"}},{"type":"Feature","geometry":{"type":"Point","coordinates":[117.80062103,-32.4286499]},"properties":{"id":"ga2026jrkqrr","mag":3.1,"magType":"MLa","place":"SW of Corrigin, WA","time":"2026-05-17T02:50:18.369Z","depth":2.78773212432861,"inAU":true,"source":"GA","modified":"2026-05-17T23:38:45.155Z"}},{"type":"Feature","geometry":{"type":"Point","coordinates":[143.06091309,39.9295578]},"properties":{"id":"ga2026jrffsn","mag":5,"magType":"mb","place":"Off East Coast of Honshu, Japan","time":"2026-05-17T00:07:28.350Z","depth":32.759895324707,"inAU":false,"source":"GA","modified":"2026-05-17T09:23:02.683Z"}},{"type":"Feature","geometry":{"type":"Point","coordinates":[138.44824219,-11.76061916]},"properties":{"id":"ga2026jrclen","mag":4,"magType":"MLa","place":"Offshore QLD, Gulf of Carpentaria","time":"2026-05-16T22:43:16.242Z","depth":29.9564647674561,"inAU":true,"source":"GA","modified":"2026-05-18T00:21:41.968Z"}},{"type":"Feature","geometry":{"type":"Point","coordinates":[121.52368927,-30.77129745]},"properties":{"id":"ga2026jrbhng","mag":1.2,"magType":"MLa","place":"Kalgoorlie-Boulder, WA","time":"2026-05-16T22:09:32.342Z","depth":5.02380704879761,"inAU":true,"source":"GA","modified":"2026-05-17T23:47:36.218Z"}},{"type":"Feature","geometry":{"type":"Point","coordinates":[169.08309937,-17.90828133]},"properties":{"id":"ga2026jqoxlk","mag":5.6,"magType":"Mw","place":"Vanuatu Islands","time":"2026-05-16T15:58:09.038Z","depth":33.3650550842285,"inAU":false,"source":"GA","modified":"2026-05-19T01:13:16.761Z"}},{"type":"Feature","geometry":{"type":"Point","coordinates":[160.76043701,-8.68655109]},"properties":{"id":"ga2026jqnoqt","mag":5.6,"magType":"Mw","place":"Solomon Islands","time":"2026-05-16T15:18:02.343Z","depth":72.9284362792969,"inAU":false,"source":"GA","modified":"2026-05-18T07:04:12.762Z"}},{"type":"Feature","geometry":{"type":"Point","coordinates":[-61.34323502,17.31497383]},"properties":{"id":"ga2026jqmqox","mag":5.9,"magType":"Mw","place":"Leeward Islands","time":"2026-05-16T14:50:05.793Z","depth":43.5938835144043,"inAU":false,"source":"GA","modified":"2026-05-17T08:28:45.640Z"}},{"type":"Feature","geometry":{"type":"Point","coordinates":[169.09533691,-17.83352089]},"properties":{"id":"ga2026jqlfyj","mag":5.3,"magType":"Mw","place":"Vanuatu Islands","time":"2026-05-16T14:07:56.851Z","depth":14.3277950286865,"inAU":false,"source":"GA","modified":"2026-05-17T11:24:27.252Z"}},{"type":"Feature","geometry":{"type":"Point","coordinates":[169.09114075,-17.93702698]},"properties":{"id":"ga2026jqiyrb","mag":5.4,"magType":"Mw","place":"Vanuatu Islands","time":"2026-05-16T12:59:34.310Z","depth":23.5819072723389,"inAU":false,"source":"GA","modified":"2026-05-18T05:23:18.390Z"}},{"type":"Feature","geometry":{"type":"Point","coordinates":[124.81794739,6.81104851]},"properties":{"id":"ga2026jqfvin","mag":5,"magType":"Mw","place":"Mindanao, Philippines","time":"2026-05-16T11:25:48.791Z","depth":43.9361343383789,"inAU":false,"source":"GA","modified":"2026-05-18T01:50:34.079Z"}},{"type":"Feature","geometry":{"type":"Point","coordinates":[-178.55558777,-17.92199707]},"properties":{"id":"ga2026jpdmam","mag":5,"magType":"Mw","place":"Fiji Islands Region","time":"2026-05-15T21:15:25.829Z","depth":562.791076660156,"inAU":false,"source":"GA","modified":"2026-05-17T08:08:02.579Z"}},{"type":"Feature","geometry":{"type":"Point","coordinates":[117.24346161,-30.25941467]},"properties":{"id":"ga2026joyols","mag":2.2,"magType":"MLa","place":"NE of Kalannie, WA","time":"2026-05-15T18:48:17.247Z","depth":1.14955806732178,"inAU":true,"source":"GA","modified":"2026-05-17T21:35:29.639Z"}},{"type":"Feature","geometry":{"type":"Point","coordinates":[141.95330811,38.9078598]},"properties":{"id":"ga2026jojrmv","mag":6.8,"magType":"Mww","place":"Near East Coast of Honshu, Japan","time":"2026-05-15T11:22:04.304Z","depth":58.2906074523926,"inAU":false,"source":"GA","modified":"2026-05-17T22:30:55.913Z"}},{"type":"Feature","geometry":{"type":"Point","coordinates":[146.49537659,-37.50100708]},"properties":{"id":"ga2026jojfsr","mag":2.2,"magType":"MLa","place":"NE of Woods Point, VIC","time":"2026-05-15T11:08:25.509Z","depth":10,"inAU":true,"source":"GA","modified":"2026-05-17T23:19:01.662Z"}},{"type":"Feature","geometry":{"type":"Point","coordinates":[149.00003052,-33.47421646]},"properties":{"id":"ga2026jntcvz","mag":2.8,"magType":"MLa","place":"SW of Orange, NSW","time":"2026-05-15T03:05:25.398Z","depth":0.724337577819824,"inAU":true,"source":"GA","modified":"2026-05-15T05:00:12.065Z"}},{"type":"Feature","geometry":{"type":"Point","coordinates":[147.77461243,-3.01461434]},"properties":{"id":"ga2026jnpkhg","mag":5.3,"magType":"mb","place":"Bismarck Sea","time":"2026-05-15T01:14:00.709Z","depth":10,"inAU":false,"source":"GA","modified":"2026-05-16T11:19:07.387Z"}},{"type":"Feature","geometry":{"type":"Point","coordinates":[117.92416382,-33.83770752]},"properties":{"id":"ga2026jncigk","mag":2.2,"magType":"MLa","place":"NW of Gnowangerup, WA","time":"2026-05-14T18:41:47.370Z","depth":0.635781347751617,"inAU":true,"source":"GA","modified":"2026-05-15T00:50:43.916Z"}},{"type":"Feature","geometry":{"type":"Point","coordinates":[130.3734436,-6.15252161]},"properties":{"id":"ga2026jnasbv","mag":6.2,"magType":"Mw","place":"Banda Sea","time":"2026-05-14T17:53:13.547Z","depth":133.114929199219,"inAU":false,"source":"GA","modified":"2026-05-15T01:18:03.325Z"}},{"type":"Feature","geometry":{"type":"Point","coordinates":[141.46362305,25.14956665]},"properties":{"id":"ga2026jmwbak","mag":5.4,"magType":"mb","place":"Volcano Islands, Japan Region","time":"2026-05-14T15:34:04.781Z","depth":139.514236450195,"inAU":false,"source":"GA","modified":"2026-05-14T23:55:37.430Z"}},{"type":"Feature","geometry":{"type":"Point","coordinates":[-76.5981369,4.1546278]},"properties":{"id":"ga2026jmqnuv","mag":5.3,"magType":"Mw","place":"Colombia","time":"2026-05-14T12:48:22.208Z","depth":110.613525390625,"inAU":false,"source":"GA","modified":"2026-05-14T23:11:29.530Z"}},{"type":"Feature","geometry":{"type":"Point","coordinates":[-25.64341354,-58.39672852]},"properties":{"id":"ga2026jmkucs","mag":5.2,"magType":"mb","place":"South Sandwich Islands Region","time":"2026-05-14T09:55:51.804Z","depth":92.1191329956055,"inAU":false,"source":"GA","modified":"2026-05-14T12:38:59.831Z"}},{"type":"Feature","geometry":{"type":"Point","coordinates":[121.27230072,19.12838745]},"properties":{"id":"ga2026jlmymu","mag":5.3,"magType":"Mw","place":"Philippine Islands Region","time":"2026-05-13T22:01:08.002Z","depth":46.8606796264648,"inAU":false,"source":"GA","modified":"2026-05-14T08:15:21.339Z"}},{"type":"Feature","geometry":{"type":"Point","coordinates":[141.38812256,39.89762115]},"properties":{"id":"ga2026jliyxt","mag":5.1,"magType":"mb","place":"Eastern Honshu, Japan","time":"2026-05-13T20:01:40.987Z","depth":47.3007354736328,"inAU":false,"source":"GA","modified":"2026-05-14T06:08:13.277Z"}},{"type":"Feature","geometry":{"type":"Point","coordinates":[-28.22934151,-55.3505249]},"properties":{"id":"ga2026jkliks","mag":5.2,"magType":"mb","place":"South Sandwich Islands Region","time":"2026-05-13T08:12:57.165Z","depth":10,"inAU":false,"source":"GA","modified":"2026-05-13T12:30:22.835Z"}},{"type":"Feature","geometry":{"type":"Point","coordinates":[-28.44210815,-55.43756866]},"properties":{"id":"ga2026jkicxm","mag":5.1,"magType":"mb","place":"South Sandwich Islands Region","time":"2026-05-13T06:36:38.094Z","depth":10,"inAU":false,"source":"GA","modified":"2026-05-13T12:35:13.004Z"}},{"type":"Feature","geometry":{"type":"Point","coordinates":[138.52128601,30.27882195]},"properties":{"id":"ga2026jkazxm","mag":5.1,"magType":"mb","place":"Southeast of Honshu, Japan","time":"2026-05-13T03:08:31.891Z","depth":441.230590820312,"inAU":false,"source":"GA","modified":"2026-05-13T06:02:20.395Z"}},{"type":"Feature","geometry":{"type":"Point","coordinates":[-173.43716431,-20.84981537]},"properties":{"id":"ga2026jjqrfx","mag":5.1,"magType":"mb","place":"Tonga Islands","time":"2026-05-12T21:53:47.093Z","depth":96.8420028686523,"inAU":false,"source":"GA","modified":"2026-05-13T04:47:31.520Z"}},{"type":"Feature","geometry":{"type":"Point","coordinates":[-176.78579712,-23.4270916]},"properties":{"id":"ga2026jjpnyn","mag":5.7,"magType":"Mw","place":"South of Fiji Islands","time":"2026-05-12T21:19:36.248Z","depth":146.939010620117,"inAU":false,"source":"GA","modified":"2026-05-14T06:37:40.566Z"}},{"type":"Feature","geometry":{"type":"Point","coordinates":[118.27127838,-33.88792038]},"properties":{"id":"ga2026jjlywn","mag":2.5,"magType":"MLa","place":"E of Gnowangerup, WA","time":"2026-05-12T19:32:15.265Z","depth":0.519403100013733,"inAU":true,"source":"GA","modified":"2026-05-12T23:49:36.736Z"}},{"type":"Feature","geometry":{"type":"Point","coordinates":[150.90731812,-32.34038544]},"properties":{"id":"ga2026jjkhbn","mag":2.6,"magType":"MLa","place":"Muswellbrook, NSW","time":"2026-05-12T18:42:06.770Z","depth":5,"inAU":true,"source":"GA","modified":"2026-05-13T00:55:35.184Z"}},{"type":"Feature","geometry":{"type":"Point","coordinates":[118.30760193,-33.91807556]},"properties":{"id":"ga2026jjijfk","mag":2.4,"magType":"MLa","place":"E of Gnowangerup, WA","time":"2026-05-12T17:44:14.349Z","depth":5,"inAU":true,"source":"GA","modified":"2026-05-12T23:38:20.880Z"}},{"type":"Feature","geometry":{"type":"Point","coordinates":[164.94418335,-10.57262516]},"properties":{"id":"ga2026jjefar","mag":5.5,"magType":"Mw","place":"Santa Cruz Islands Region","time":"2026-05-12T15:39:31.209Z","depth":60.7941093444824,"inAU":false,"source":"GA","modified":"2026-05-13T05:16:14.837Z"}},{"type":"Feature","geometry":{"type":"Point","coordinates":[127.55792999,4.80461359]},"properties":{"id":"ga2026jiqrkp","mag":5.2,"magType":"mb","place":"Talaud Islands, Indonesia","time":"2026-05-12T08:53:56.817Z","depth":107.091400146484,"inAU":false,"source":"GA","modified":"2026-05-13T05:28:54.238Z"}},{"type":"Feature","geometry":{"type":"Point","coordinates":[121.57384491,23.20658112]},"properties":{"id":"ga2026jimrat","mag":5.1,"magType":"Mw","place":"Taiwan","time":"2026-05-12T06:53:31.095Z","depth":10.7878580093384,"inAU":false,"source":"GA","modified":"2026-05-13T02:35:08.421Z"}},{"type":"Feature","geometry":{"type":"Point","coordinates":[161.2688446,-10.21735573]},"properties":{"id":"ga2026jigkda","mag":5,"magType":"mb","place":"Solomon Islands","time":"2026-05-12T03:45:43.227Z","depth":62.359790802002,"inAU":false,"source":"GA","modified":"2026-05-12T05:37:12.093Z"}},{"type":"Feature","geometry":{"type":"Point","coordinates":[-177.20278931,-15.69662285]},"properties":{"id":"ga2026jhrapf","mag":5.1,"magType":"mb","place":"Fiji Islands Region","time":"2026-05-11T20:04:58.712Z","depth":10,"inAU":false,"source":"GA","modified":"2026-05-12T04:48:14.676Z"}},{"type":"Feature","geometry":{"type":"Point","coordinates":[125.66316223,-17.79792786]},"properties":{"id":"ga2026jhneob","mag":3.9,"magType":"MLa","place":"NE of Fitzroy Crossing, WA","time":"2026-05-11T18:09:28.839Z","depth":10,"inAU":true,"source":"GA","modified":"2026-05-12T00:00:26.931Z"}}]}